     2              NAVIGATION DATA                         RINEX VERSION / TYPE
CCRINEXN V1.6.0 UX  CDDIS               30-MAY-16 15:33     PGM / RUN BY / DATE 
IGS BROADCAST EPHEMERIS FILE                                COMMENT             
    0.1024D-07  0.2235D-07 -0.5960D-07 -0.1192D-06          ION ALPHA           
    0.9626D+05  0.1311D+06 -0.6554D+05 -0.5898D+06          ION BETA            
   -0.931322574615D-09 0.888178419700D-15   233472     1899 DELTA-UTC: A0,A1,T,W
    17                                                      LEAP SECONDS        
                                                            END OF HEADER       
 4 16  5 29 16  0  0.0-0.257009640336D-03-0.568434188608D-12 0.000000000000D+00
    0.460000000000D+02 0.337812500000D+02 0.537915263473D-08 0.110046043425D+01
    0.196695327759D-05 0.850809004623D-02 0.903010368347D-05 0.515364837456D+04
    0.576000000000D+05-0.949949026108D-07 0.192306379210D+01 0.119209289551D-06
    0.983168494674D+00 0.220125000000D+03 0.889579085900D+00-0.798318967475D-08
   -0.717887045734D-10 0.100000000000D+01 0.189900000000D+04 0.000000000000D+00
    0.200000000000D+01 0.630000000000D+02-0.195577740669D-07 0.460000000000D+02
    0.504300000000D+05 0.400000000000D+01 0.000000000000D+00 0.000000000000D+00
 5 16  5 29 16  0  0.0-0.116991344839D-03 0.295585778076D-11 0.000000000000D+00
    0.430000000000D+02-0.756250000000D+01 0.467055169008D-08 0.790393588300D+00
   -0.258907675743D-06 0.460031081457D-02 0.104177743196D-04 0.515380188751D+04
    0.576000000000D+05-0.353902578354D-07-0.125334741481D+01 0.912696123123D-07
    0.946064080646D+00 0.171343750000D+03 0.452639360212D+00-0.807212195057D-08
    0.166792661870D-09 0.000000000000D+00 0.189900000000D+04 0.000000000000D+00
    0.200000000000D+01 0.000000000000D+00-0.107102096081D-07 0.430000000000D+02
    0.504000000000D+05 0.400000000000D+01 0.000000000000D+00 0.000000000000D+00
 6 16  5 29 16  0  0.0 0.197221525013D-03 0.545696821064D-11 0.000000000000D+00
    0.550000000000D+02-0.784687500000D+02 0.449733018900D-08-0.176182918154D+01
   -0.409595668316D-05 0.427421997301D-03 0.728666782379D-05 0.515370035744D+04
    0.576000000000D+05 0.894069671631D-07-0.229152267233D+01 0.298023223877D-07
    0.964164069692D+00 0.242906250000D+03-0.141898927675D+01-0.819069831832D-08
   -0.224295057075D-09 0.100000000000D+01 0.189900000000D+04 0.000000000000D+00
    0.200000000000D+01 0.000000000000D+00 0.419095158577D-08 0.550000000000D+02
    0.504180000000D+05 0.400000000000D+01 0.000000000000D+00 0.000000000000D+00
 7 16  5 29 16  0  0.0 0.451714266092D-03-0.227373675443D-11 0.000000000000D+00
    0.340000000000D+02-0.890625000000D+01 0.460519182472D-08-0.280749411003D+01
   -0.553205609322D-06 0.948220083956D-02 0.800751149654D-05 0.515364802551D+04
    0.576000000000D+05-0.428408384323D-07 0.875811917882D+00-0.188127160072D-06
    0.966416287666D+00 0.231250000000D+03-0.267561961286D+01-0.801461955536D-08
   -0.327870799992D-09 0.100000000000D+01 0.189900000000D+04 0.000000000000D+00
    0.200000000000D+01 0.000000000000D+00-0.111758708954D-07 0.340000000000D+02
    0.504180000000D+05 0.400000000000D+01 0.000000000000D+00 0.000000000000D+00
 8 16  5 29 16  0  0.0-0.369846820831D-04-0.147792889038D-11 0.000000000000D+00
    0.550000000000D+02 0.906250000000D+00 0.465233664564D-08 0.905333451115D+00
   -0.122934579849D-06 0.174490222707D-02 0.467523932457D-05 0.515369440079D+04
    0.576000000000D+05 0.186264514923D-07 0.293997448350D+01-0.484287738800D-07
    0.963544902781D+00 0.291906250000D+03-0.109552763102D+01-0.835677666472D-08
    0.239295681911D-10 0.100000000000D+01 0.189900000000D+04 0.000000000000D+00
    0.200000000000D+01 0.000000000000D+00 0.465661287308D-08 0.550000000000D+02
    0.570720000000D+05 0.400000000000D+01 0.000000000000D+00 0.000000000000D+00
 9 16  5 29 16  0  0.0 0.138449016958D-03 0.727595761418D-11 0.000000000000D+00
    0.310000000000D+02 0.436562500000D+02 0.495127766916D-08-0.317572107239D+00
    0.202096998692D-05 0.576172256842D-03 0.622309744358D-05 0.515356767464D+04
    0.576000000000D+05 0.167638063431D-07-0.202076474531D+00 0.372529029846D-08
    0.955344396992D+00 0.252875000000D+03 0.228212474468D+01-0.833320425426D-08
    0.240724312848D-09 0.100000000000D+01 0.189900000000D+04 0.000000000000D+00
    0.200000000000D+01 0.000000000000D+00 0.139698386192D-08 0.310000000000D+02
    0.504180000000D+05 0.400000000000D+01 0.000000000000D+00 0.000000000000D+00
10 16  5 29 16  0  0.0-0.336482189596D-04-0.864019966684D-11 0.000000000000D+00
    0.310000000000D+02 0.931250000000D+01 0.440411202037D-08 0.185090141528D+01
    0.478699803352D-06 0.153246033005D-02 0.105053186417D-04 0.515368468475D+04
    0.576000000000D+05-0.316649675369D-07-0.124542678427D+01-0.353902578354D-07
    0.959235721047D+00 0.174250000000D+03-0.271401236764D+01-0.792533012181D-08
    0.158578033983D-09 0.000000000000D+00 0.189900000000D+04 0.000000000000D+00
    0.200000000000D+01 0.000000000000D+00 0.232830643654D-08 0.310000000000D+02
    0.520500000000D+05 0.400000000000D+01 0.000000000000D+00 0.000000000000D+00
11 16  5 29 16  0  0.0-0.648671761155D-03-0.136424205266D-11 0.000000000000D+00
    0.170000000000D+02-0.732187500000D+02 0.592560400747D-08-0.268965842721D+01
   -0.364705920219D-05 0.163919684710D-01 0.457465648651D-05 0.515366559982D+04
    0.576000000000D+05 0.150874257088D-06-0.266020310857D+01 0.651925802231D-07
    0.896813015382D+00 0.253718750000D+03 0.152677288518D+01-0.864857430116D-08
   -0.114290472919D-09 0.100000000000D+01 0.189900000000D+04 0.000000000000D+00
    0.200000000000D+01 0.000000000000D+00-0.121071934700D-07 0.170000000000D+02
    0.504300000000D+05 0.000000000000D+00 0.000000000000D+00 0.000000000000D+00
12 16  5 29 16  0  0.0 0.381192658097D-03 0.113686837722D-11 0.000000000000D+00
    0.460000000000D+02 0.198437500000D+02 0.379051503302D-08 0.291761870484D+01
    0.901520252228D-06 0.615190481767D-02 0.910274684429D-05 0.515372870445D+04
    0.576000000000D+05-0.800937414169D-07 0.195237387077D+01-0.117346644402D-06
    0.990180003554D+00 0.215468750000D+03 0.752160519808D+00-0.764103256539D-08
   -0.350014579512D-10 0.000000000000D+00 0.189900000000D+04 0.000000000000D+00
    0.200000000000D+01 0.000000000000D+00-0.125728547573D-07 0.460000000000D+02
    0.504000000000D+05 0.400000000000D+01 0.000000000000D+00 0.000000000000D+00
13 16  5 29 16  0  0.0-0.211629085243D-04-0.261479726760D-11 0.000000000000D+00
    0.280000000000D+02 0.428750000000D+02 0.455840416155D-08-0.188225302392D+01
    0.238232314587D-05 0.435869907960D-02 0.647641718388D-05 0.515367770004D+04
    0.576000000000D+05-0.577419996262D-07-0.813809009726D-01 0.912696123123D-07
    0.971774466513D+00 0.261968750000D+03 0.200326873808D+01-0.808640825993D-08
    0.160006664920D-09 0.000000000000D+00 0.189900000000D+04 0.000000000000D+00
    0.200000000000D+01 0.000000000000D+00-0.111758708954D-07 0.280000000000D+02
    0.504000000000D+05 0.400000000000D+01 0.000000000000D+00 0.000000000000D+00
14 16  5 29 16  0  0.0-0.164909288287D-04-0.204636307899D-11 0.000000000000D+00
    0.330000000000D+02 0.416875000000D+02 0.482234372712D-08-0.181314027246D+00
    0.213459134102D-05 0.867186789401D-02 0.610016286373D-05 0.515401438713D+04
    0.576000000000D+05-0.633299350738D-07-0.118420373141D+00 0.838190317154D-07
    0.964253467153D+00 0.268125000000D+03-0.196585378165D+01-0.837177728956D-08
    0.145006040084D-09 0.000000000000D+00 0.189900000000D+04 0.000000000000D+00
    0.200000000000D+01 0.000000000000D+00-0.931322574616D-08 0.330000000000D+02
    0.573000000000D+05 0.400000000000D+01 0.000000000000D+00 0.000000000000D+00
15 16  5 29 16  0  0.0-0.313008669764D-03-0.170530256582D-11 0.000000000000D+00
    0.104000000000D+03 0.483125000000D+02 0.543844081860D-08-0.794185460258D+00
    0.269338488579D-05 0.812293600757D-02 0.616721808910D-05 0.515359651184D+04
    0.576000000000D+05 0.132247805595D-06-0.254657569978D+00 0.409781932831D-07
    0.931044391427D+00 0.240312500000D+03 0.483475786159D+00-0.861143012920D-08
    0.251081887140D-09 0.000000000000D+00 0.189900000000D+04 0.000000000000D+00
    0.200000000000D+01 0.000000000000D+00-0.107102096081D-07 0.104000000000D+03
    0.504000000000D+05 0.400000000000D+01 0.000000000000D+00 0.000000000000D+00
16 16  5 29 16  0  0.0-0.143251381815D-04 0.250111042988D-11 0.000000000000D+00
    0.108000000000D+03 0.367812500000D+02 0.389730519555D-08 0.883535448009D+00
    0.220909714699D-05 0.875801895745D-02 0.877305865288D-05 0.515376674080D+04
    0.576000000000D+05 0.186264514923D-08 0.197115838259D+01 0.130385160446D-06
    0.990696254178D+00 0.223750000000D+03 0.386322578743D+00-0.785461289044D-08
   -0.882179603464D-10 0.100000000000D+01 0.189900000000D+04 0.000000000000D+00
    0.280000000000D+01 0.000000000000D+00-0.107102096081D-07 0.108000000000D+03
    0.504180000000D+05 0.400000000000D+01 0.000000000000D+00 0.000000000000D+00
17 16  5 29 16  0  0.0-0.203911680728D-03-0.113686837722D-12 0.000000000000D+00
    0.900000000000D+02 0.218750000000D+01 0.446518599872D-08 0.140633518750D-01
    0.204890966415D-06 0.109617083799D-01 0.513345003128D-05 0.515369377708D+04
    0.576000000000D+05-0.134110450745D-06 0.299258003601D+01 0.113621354103D-06
    0.976698391294D+00 0.290937500000D+03-0.192772692102D+01-0.839927860596D-08
    0.771460673121D-10 0.100000000000D+01 0.189900000000D+04 0.000000000000D+00
    0.280000000000D+01 0.000000000000D+00-0.107102096081D-07 0.900000000000D+02
    0.504000000000D+05 0.000000000000D+00 0.000000000000D+00 0.000000000000D+00
